SAUDISAT 1C             
1 27607U 02058C   22316.13743857  .00001115  00000+0  17193-3 0  9990
2 27607  64.5546 209.8869 0081356 266.3557  92.8239 14.76407986 70386
SAUDISAT 2              
1 28371U 04025F   22316.31912545  .00000340  00000+0  90304-4 0  9992
2 28371  98.4003 273.5030 0025780  12.6449 347.5389 14.54648143974789
SAUDISAT 3              
1 31118U 07012B   22316.41888698  .00000388  00000+0  73718-4 0  9998
2 31118  97.9868 260.0022 0016500  85.0899 275.2190 14.69414337834885
PISAT                   
1 41784U 16059B   22315.83944789  .00000855  00000+0  17025-3 0  9995
2 41784  97.8987 353.3387 0032874  64.6977 295.7626 14.64098485327254
FLYING LAPTOP           
1 42831U 17042G   22315.81484733  .00002613  00000+0  26188-3 0  9992
2 42831  97.4044 161.5991 0012392 231.0554 128.9538 14.92112990290068
SALSAT                  
1 46495U 20068K   22315.84847180  .00003772  00000+0  26742-3 0  9999
2 46495  97.7454 257.3489 0017453 133.5494 226.7185 15.05280522116350
